[{"OBJECT_NAME":"STARLINK-3612","OBJECT_ID":"2022-017C","EPOCH":"2026-03-09T22:45:39.042720","MEAN_MOTION":15.08842412,"ECCENTRICITY":0.0001348,"INCLINATION":53.2194,"RA_OF_ASC_NODE":337.9603,"ARG_OF_PERICENTER":82.8992,"MEAN_ANOMALY":277.2154,"EPHEMERIS_TYPE":0,"CLASSIFICATION_TYPE":"U","NORAD_CAT_ID":51770,"ELEMENT_SET_NO":999,"REV_AT_EPOCH":22265,"BSTAR":-3.9486148e-5,"MEAN_MOTION_DOT":-9.16e-6,"MEAN_MOTION_DDOT":0},{"OBJECT_NAME":"COSMOS 375 DEB","OBJECT_ID":"1970-091H","EPOCH":"2026-03-09T13:56:42.077184","MEAN_MOTION":14.60451332,"ECCENTRICITY":0.0264087,"INCLINATION":62.7485,"RA_OF_ASC_NODE":160.0286,"ARG_OF_PERICENTER":210.3604,"MEAN_ANOMALY":148.1954,"EPHEMERIS_TYPE":0,"CLASSIFICATION_TYPE":"U","NORAD_CAT_ID":4628,"ELEMENT_SET_NO":999,"REV_AT_EPOCH":74903,"BSTAR":0.0018248,"MEAN_MOTION_DOT":0.00014425,"MEAN_MOTION_DDOT":0}]
